# From MPC108598
145P/Shoemaker-Levy,e,11.2776,26.8135,10.3146,4.133216,0.1172929,0.54261236,282.2621,04/09.0/2024,2000,g 13.5,4.0
# From MPC100284
146P/Shoemaker-LINEAR,e,23.1171,53.4199,317.0247,4.026132,0.1220034,0.64742494,345.5440,04/09.0/2024,2000,g 15.0,4.0
# From MPC 75720
147P/Kushida-Muramatsu,e,2.2913,92.1161,348.1039,4.010618,0.1227120,0.21243995,15.2088,04/09.0/2024,2000,g 14.0,4.0
# From MPEC 2023-HD1
148P/Anderson-LINEAR,e,3.6586,89.1968,8.0537,3.619756,0.1431150,0.55023202,95.1904,04/09.0/2024,2000,g 16.2,4.0
# From MPEC 2023-J29
149P/Mueller,e,34.2383,143.8405,30.3929,4.124700,0.1176564,0.32432236,244.3897,04/09.0/2024,2000,g  8.0,8.0
# From MPEC 2024-F34
150P/LONEOS,e,18.5474,272.0589,246.1132,3.870023,0.1294595,0.54894679,3.5650,04/09.0/2024,2000,g 13.5,4.0
# From MPEC 2022-K19
151P/Helin,e,4.7277,143.1635,216.1336,5.764116,0.0712205,0.57328763,220.7341,04/09.0/2024,2000,g 10.0,6.0
# From MPEC 2024-F91
152P/Helin-Lawrence,e,9.8781,91.7971,164.3594,4.483189,0.1038302,0.30807306,84.6474,04/09.0/2024,2000,g 11.5,4.0
# From MPC 46101
153P/Ikeya-Zhang,e,28.3911,93.6995,34.3809,50.35316,0.0027584,0.98997803,0.0000,03/05.9034/2002,2000,g  9.0,4.0
# From MPEC 2022-K19
154P/Brewington,e,17.6340,343.0164,47.9610,4.795190,0.0938632,0.67614684,354.0441,04/09.0/2024,2000,g  2.5,12.0
# From MPEC 2022-YN2
155P/Shoemaker,e,6.4076,97.1592,14.5202,6.571048,0.0585130,0.72728188,93.9674,04/09.0/2024,2000,g 10.0,4.8
# From MPEC 2023-J29
156P/Russell-LINEAR,e,17.2694,35.3420,0.5047,3.462494,0.1529750,0.61513950,189.2846,04/09.0/2024,2000,g 15.5,2.0
# From MPEC 2024-D33
157P/Tritton,e,12.4207,287.5188,155.1214,3.546916,0.1475461,0.55682241,85.1435,04/09.0/2024,2000,g 10.0,4.0
# From MPEC 2022-VC5
157P-B/Tritton,e,12.4250,153.9162,287.1429,3.102294,0.1803763,0.49989144,104.4135,04/09.0/2024,2000,g 15.7,4.0
# From MPEC 2024-D33
158P/Kowal-LINEAR,e,7.2963,127.0154,214.9582,5.552744,0.0753256,0.11605172,52.7905,04/09.0/2024,2000,g  9.0,4.0
# From MPEC 2024-DC6
159P/LONEOS,e,23.4895,54.9389,4.6503,5.853404,0.0695971,0.38280311,149.3486,04/09.0/2024,2000,g 10.0,4.0
# From MPEC 2022-K19
160P/LINEAR,e,15.6038,333.3729,12.7878,3.778199,0.1342075,0.52552408,213.3411,04/09.0/2024,2000,g 15.5,2.0
# From MPC 75721
161P/Hartley-IRAS,e,95.8223,1.5618,47.0620,7.713117,0.0460107,0.83563286,315.6835,04/09.0/2024,2000,g  8.5,6.0
# From MPEC 2024-F34
162P/SidingSpring,e,27.5630,30.8874,357.2160,3.092164,0.1812635,0.58312154,220.6791,04/09.0/2024,2000,g 12.0,4.0
# From MPEC 2021-S45
163P/NEAT,e,12.7192,102.0694,349.5761,3.762982,0.1350224,0.45321076,230.5224,04/09.0/2024,2000,g 14.5,4.0
# From MPEC 2021-F20
164P/Christensen,e,16.2726,88.3045,325.8876,3.652463,0.1411970,0.54124061,301.6340,04/09.0/2024,2000,g 11.0,4.0
# From MPC 75721
165P/LINEAR,e,15.8997,0.7904,125.7716,17.81954,0.0131027,0.61811154,114.1783,04/09.0/2024,2000,g 11.5,2.0
# From MPC 75722
166P/NEAT,e,15.3796,64.4310,321.7318,13.82555,0.0191726,0.38420878,152.8748,04/09.0/2024,2000,g  5.5,4.0
# From MPEC 2023-J29
167P/CINEOS,e,19.0869,295.7976,344.7072,16.25845,0.0150344,0.26837390,126.2007,04/09.0/2024,2000,g  9.5,2.0
# From MPEC 2023-J29
168P/Hergenrother,e,21.6039,355.4172,15.0775,3.586880,0.1450871,0.62153411,247.2635,04/09.0/2024,2000,g 15.5,4.0
# From MPEC 2023-J95
169P/NEAT,e,11.2940,176.0915,218.0824,2.603337,0.2346435,0.76828579,149.9943,04/09.0/2024,2000,g 16.0,2.0
# From MPEC 2024-F34
170P/Christensen,e,10.1136,142.7124,225.1382,4.206102,0.1142574,0.30562392,40.8284,04/09.0/2024,2000,g 12.0,4.0
# From MPC102102
171P/Spahr,e,21.9497,101.6987,347.0626,3.552627,0.1471905,0.50258190,281.3901,04/09.0/2024,2000,g 13.5,4.0
# From MPEC 2024-F34
172P/Yeung,e,11.2251,30.8774,209.0425,4.220337,0.1136798,0.20451146,294.8199,04/09.0/2024,2000,g 13.0,4.0
# From MPEC 2023-N01
173P/Mueller,e,16.4906,100.3573,29.1880,5.712491,0.0721881,0.26200361,60.9444,04/09.0/2024,2000,g  7.5,4.0
# From MPC 92985
174P/Echeclus,e,4.3430,173.2991,163.4345,10.75521,0.0279432,0.45595212,91.4397,04/09.0/2024,2000,g  9.4,2.0
# From MPC114608
175P/Hergenrother,e,4.9120,110.1273,75.1429,3.672356,0.1400512,0.38005662,237.2827,04/09.0/2024,2000,g 14.0,4.0
# From MPC 89015
176P/LINEAR,e,0.2314,345.6258,34.4506,3.194438,0.1726284,0.19224353,87.3251,04/09.0/2024,2000,g 15.1,2.0
# From MPEC 2020-L06
177P/Barnard,e,31.0528,271.9607,60.6107,24.51553,0.0081197,0.95471794,52.1827,04/09.0/2024,2000,g 15.0,4.0
# From MPEC 2021-F20
178P/Hug-Bell,e,11.0899,102.7989,297.9229,3.632801,0.1423448,0.48252715,193.7662,04/09.0/2024,2000,g 14.6,4.0
# From MPEC 2024-EF7
179P/Jedicke,e,19.8938,115.5147,297.1016,5.934807,0.0681701,0.30579177,46.2501,04/09.0/2024,2000,g  2.5,8.0
# From MPEC 2024-F34
180P/NEAT,e,16.8612,84.5599,94.6482,3.868422,0.1295398,0.35357544,35.2194,04/09.0/2024,2000,g 11.0,4.0
# From MPC 89012
181P/Shoemaker-Levy,e,17.4828,35.4214,336.2884,3.877634,0.1290785,0.70032392,106.0125,04/09.0/2024,2000,g 11.5,4.0
# From MPEC 2014-J10
182P/LONEOS,e,16.2318,72.4496,54.2065,2.949458,0.1945767,0.66355901,135.7398,04/09.0/2024,2000,g 18.0,4.0
# From MPEC 2023-A50
183P/Korlevic-Juric,e,18.8110,3.8567,164.7449,4.688571,0.0970830,0.10339286,236.2999,04/09.0/2024,2000,g 12.5,2.0
# From MPEC 2020-W26
184P/Lovas,e,4.5729,173.2756,186.5576,3.799166,0.1330980,0.55045030,167.8136,04/09.0/2024,2000,g 13.5,4.0
# From MPEC 2024-F91
185P/Petriew,e,14.0145,214.1150,181.8964,3.098521,0.1807059,0.69969489,48.9907,04/09.0/2024,2000,g 15.0,4.0
# From MPEC 2022-X67
186P/Garradd,e,28.6266,326.1208,269.0445,4.851731,0.0922272,0.12426456,178.1211,04/09.0/2024,2000,g  7.5,4.0
# From MPEC 2020-SI8
187P/LINEAR,e,13.6497,109.8498,131.1766,4.559752,0.1012260,0.15394519,218.6680,04/09.0/2024,2000,g  9.0,4.0
# From MPEC 2023-J29
188P/LINEAR-Mueller,e,10.5238,358.9393,26.7444,4.367998,0.1079644,0.41692998,280.7552,04/09.0/2024,2000,g 11.5,4.0
# From MPEC 2022-QD9
189P/NEAT,e,20.0921,281.6731,16.2635,2.943142,0.1952033,0.58920680,115.0038,04/09.0/2024,2000,g 19.0,4.0
# From MPEC 2020-K19
190P/Mueller,e,2.1746,335.5609,50.4466,4.227314,0.1133985,0.52222639,330.6183,04/09.0/2024,2000,g 13.0,4.0
# From MPEC 2022-X67
191P/McNaught,e,8.8389,98.1929,284.2330,3.639431,0.1419560,0.38568862,158.3449,04/09.0/2024,2000,g 13.0,4.0
# From MPC 75724
192P/Shoemaker-Levy,e,24.5849,51.6550,313.0454,6.460124,0.0600265,0.77330507,357.2766,04/09.0/2024,2000,g 15.0,4.0
# From MPEC 2024-EF7
193P/LINEAR-NEAT,e,10.6842,335.1872,8.1347,3.578138,0.1456191,0.39315385,139.5276,04/09.0/2024,2000,g 14.0,4.0
# From MPEC 2024-F91
194P/LINEAR,e,11.8061,349.5245,128.5656,4.119736,0.1178691,0.56318284,7.6347,04/09.0/2024,2000,g 16.0,4.0
# From MPEC 2024-EF7
195P/Hill,e,36.4202,243.1108,250.0293,6.481574,0.0597287,0.31412228,331.4056,04/09.0/2024,2000,g  8.5,4.0
# From MPEC 2022-YN2
196P/Tichy,e,19.3011,24.1150,12.0837,3.804361,0.1328255,0.42793706,70.0846,04/09.0/2024,2000,g 13.5,4.0
# From MPEC 2023-UR6
197P/LINEAR,e,25.6072,66.2601,189.0934,2.877581,0.2019123,0.62931968,98.4983,04/09.0/2024,2000,g 16.5,2.0
# From NK 1596
198P/ODAS,e,1.3387,358.2080,69.2795,3.594464,0.1446282,0.44474841,280.6470,04/09.0/2024,2000,g  9.0,4.0
# From MPEC 2023-W26
199P/Shoemaker,e,24.9387,92.3486,191.7725,5.878083,0.0691593,0.50486696,16.9740,04/09.0/2024,2000,g 10.0,4.0
# From MPEC 2022-C56
200P/Larsen,e,12.0963,234.8051,134.3604,4.949932,0.0894963,0.33202887,153.4745,04/09.0/2024,2000,g  9.0,4.0
# From MPC 93588
201P/LONEOS,e,5.7399,41.5397,19.7651,3.354777,0.1604016,0.63757684,168.0540,04/09.0/2024,2000,g 14.0,4.0
# From MPEC 2023-XP6
202P/Scotti,e,2.1415,177.3181,274.4905,4.104602,0.1185216,0.25213739,355.4469,04/09.0/2024,2000,g 13.5,4.0
# From MPEC 2021-S45
203P/Korlevic,e,2.9741,290.2537,154.8353,4.668673,0.0977043,0.31623118,146.0644,04/09.0/2024,2000,g 14.5,2.0
# From MPEC 2023-KD6
204P/LINEAR-NEAT,e,6.5964,108.4842,356.6881,3.583388,0.1452993,0.48811966,73.9617,04/09.0/2024,2000,g 14.0,4.0
# From MPEC 2023_O39
205P/Giacobini,e,15.3047,179.6117,154.1841,3.542547,0.1478191,0.56756938,120.7155,04/09.0/2024,2000,g 13.0,4.0
# From MPC 75725
206P/Barnard-Boattini,e,33.6344,202.3520,189.5514,3.490925,0.1511100,0.55144346,170.9096,04/09.0/2024,2000,g 19.0,4.0
# From MPEC 2024-F34
207P/NEAT,e,10.2013,198.1557,272.9922,3.883580,0.1287822,0.75840511,8.7807,04/09.0/2024,2000,g 16.0,4.0
# From MPEC 2022-K19
208P/McMillan,e,4.4123,36.4009,310.6114,4.038697,0.1214345,0.37387795,343.3746,04/09.0/2024,2000,g 12.5,4.0
# From MPEC 2024-EF7
209P/LINEAR,e,21.2825,62.7698,152.4945,2.958362,0.1936989,0.67400224,341.3084,04/09.0/2024,2000,g 17.0,2.0
# From MPC105242
210P/Christensen,e,10.2792,93.8238,345.8961,3.162152,0.1752791,0.83399166,256.1123,04/09.0/2024,2000,g 13.5,4.0
# From MPEC 2023-KD6
211P/Hill,e,18.9195,117.1125,4.3151,3.548750,0.1474318,0.34422332,81.4189,04/09.0/2024,2000,g 12.5,4.0
# From MPEC 2024-EF7
212P/NEAT,e,22.1486,97.9753,14.0226,3.901344,0.1279036,0.58669498,357.9414,04/09.0/2024,2000,g 17.0,2.0
# From MPEC 2022-GA9
213P/Van Ness,e,10.3809,311.3068,5.7711,3.345513,0.1610683,0.40804297,24.0284,04/09.0/2024,2000,g 10.5,4.0
# From MPC 76570
213P-B/Van Ness,e,10.3802,5.7373,311.3491,3.345805,0.1610472,0.40819449,23.8800,04/09.0/2024,2000,g 17.0,4.0
# From MPC 76570
213P-C/Van Ness,e,10.3777,5.7188,311.3504,3.345157,0.1610940,0.40803117,24.1554,04/09.0/2024,2000,g 17.5,4.0
# From MPC 92986
214P/LINEAR,e,15.1855,348.2218,190.1461,3.617844,0.1432285,0.48589346,80.3330,04/09.0/2024,2000,g 13.0,4.0
# From MPEC 2024-F91
215P/NEAT,e,10.5765,56.6732,262.4054,4.333517,0.1092555,0.16541971,175.2629,04/09.0/2024,2000,g 11.0,4.0
# From MPEC 2024-F34
216P/LINEAR,e,9.0630,359.7987,151.7341,3.858340,0.1300479,0.44870717,12.1104,04/09.0/2024,2000,g 13.0,4.0
# From MPEC 2023-J29
217P/LINEAR,e,12.8634,125.3826,247.0107,3.946553,0.1257121,0.68924258,308.3451,04/09.0/2024,2000,g 12.0,4.0
# From MPEC 2022-K19
218P/LINEAR,e,2.7272,175.7122,59.8735,3.080144,0.1823255,0.62733501,233.3060,04/09.0/2024,2000,g 16.0,4.0
# From MPEC 2024-F91
